{"type": "FeatureCollection", "features": [ {"type": "Feature", "properties": {"norad_id": 34433, "name": "COSMOS 2251 DEB", "group": "cosmos-2251-debris", "lat": -21.264597967896588, "lon": -42.48480894041377, "alt_km": 805.0224204063588, "timestamp": "2025-12-26T04:40:06.179179+00:00", "meta": {"OBJECT_NAME": "COSMOS 2251 DEB", "OBJECT_ID": "1993-036SA", "EPOCH": "2025-12-25T19:12:11.035008", "MEAN_MOTION": 14.12911954, "ECCENTRICITY": 0.01528494, "INCLINATION": 74.01, "RA_OF_ASC_NODE": 131.8065, "ARG_OF_PERICENTER": 267.1359, "MEAN_ANOMALY": 91.228, "EPHEMERIS_TYPE": 0, "CLASSIFICATION_TYPE": "U", "NORAD_CAT_ID": 34433, "ELEMENT_SET_NO": 999, "REV_AT_EPOCH": 86134, "BSTAR": 0.0013789876, "MEAN_MOTION_DOT": 2.843e-05, "MEAN_MOTION_DDOT": 0}, "tle": {"line1": "1 34433U 93036SA  25359.80012772  .00002843  00000+0  13790-2 0  9997", "line2": "2 34433  74.0100 131.8065 0152849 267.1359  91.2280 14.12911954861348"}}, "geometry": {"type": "Point", "coordinates": [-42.48480894041377, -21.264597967896588]}}, {"type": "Feature", "properties": {"norad_id": 34434, "name": "COSMOS 2251 DEB", "group": "cosmos-2251-debris", "lat": 53.29427442009712, "lon": 9.776337135753005, "alt_km": 833.8850776199506, "timestamp": "2025-12-26T04:40:06.179189+00:00", "meta": {"OBJECT_NAME": "COSMOS 2251 DEB", "OBJECT_ID": "1993-036SB", "EPOCH": "2025-12-25T18:19:57.841824", "MEAN_MOTION": 13.89885482, "ECCENTRICITY": 0.0273409, "INCLINATION": 74.0626, "RA_OF_ASC_NODE": 347.9722, "ARG_OF_PERICENTER": 122.0953, "MEAN_ANOMALY": 303.2867, "EPHEMERIS_TYPE": 0, "CLASSIFICATION_TYPE": "U", "NORAD_CAT_ID": 34434, "ELEMENT_SET_NO": 999, "REV_AT_EPOCH": 84147, "BSTAR": 0.002074337, "MEAN_MOTION_DOT": 3.429e-05, "MEAN_MOTION_DDOT": 0}, "tle": {"line1": "1 34434U 93036SB  25359.76386391  .00003429  00000+0  20743-2 0  9991", "line2": "2 34434  74.0626 347.9722 0273409 122.0953 303.2867 13.89885482841475"}}, "geometry": {"type": "Point", "coordinates": [9.776337135753005, 53.29427442009712]}}, {"type": "Feature", "properties": {"norad_id": 34446, "name": "COSMOS 2251 DEB", "group": "cosmos-2251-debris", "lat": -61.81012881070135, "lon": -115.68070499612035, "alt_km": 727.8701148156051, "timestamp": "2025-12-26T04:40:06.179199+00:00", "meta": {"OBJECT_NAME": "COSMOS 2251 DEB", "OBJECT_ID": "1993-036SP", "EPOCH": "2025-12-24T21:43:11.582688", "MEAN_MOTION": 14.49365513, "ECCENTRICITY": 0.00505396, "INCLINATION": 74.0415, "RA_OF_ASC_NODE": 34.4678, "ARG_OF_PERICENTER": 169.5596, "MEAN_ANOMALY": 190.6627, "EPHEMERIS_TYPE": 0, "CLASSIFICATION_TYPE": "U", "NORAD_CAT_ID": 34446, "ELEMENT_SET_NO": 999, "REV_AT_EPOCH": 88870, "BSTAR": 0.00011865833, "MEAN_MOTION_DOT": 4.32e-06, "MEAN_MOTION_DDOT": 0}, "tle": {"line1": "1 34446U 93036SP  25358.90499517  .00000432  00000+0  11866-3 0  9992", "line2": "2 34446  74.0415  34.4678 0050539 169.5596 190.6627 14.49365513888702"}}, "geometry": {"type": "Point", "coordinates": [-115.68070499612035, -61.81012881070135]}}, {"type": "Feature", "properties": {"norad_id": 34449, "name": "COSMOS 2251 DEB", "group": "cosmos-2251-debris", "lat": 73.73458672536246, "lon": 144.47736862192534, "alt_km": 557.7993028336396, "timestamp": "2025-12-26T04:40:06.179209+00:00", "meta": {"OBJECT_NAME": "COSMOS 2251 DEB", "OBJECT_ID": "1993-036SS", "EPOCH": "2025-12-25T14:21:40.147776", "MEAN_MOTION": 14.95549777, "ECCENTRICITY": 0.0022834, "INCLINATION": 74.032, "RA_OF_ASC_NODE": 44.6102, "ARG_OF_PERICENTER": 79.5091, "MEAN_ANOMALY": 45.2516, "EPHEMERIS_TYPE": 0, "CLASSIFICATION_TYPE": "U", "NORAD_CAT_ID": 34449, "ELEMENT_SET_NO": 999, "REV_AT_EPOCH": 88885, "BSTAR": 0.0024501, "MEAN_MOTION_DOT": 0.00027385, "MEAN_MOTION_DDOT": 0}, "tle": {"line1": "1 34449U 93036SS  25359.59838134  .00027385  00000+0  24501-2 0  9998", "line2": "2 34449  74.0320  44.6102 0022834  79.5091  45.2516 14.95549777888857"}}, "geometry": {"type": "Point", "coordinates": [144.47736862192534, 73.73458672536246]}}, {"type": "Feature", "properties": {"norad_id": 34451, "name": "COSMOS 2251 DEB", "group": "cosmos-2251-debris", "lat": 71.93478747614081, "lon": 179.42389629697016, "alt_km": 556.0743475348536, "timestamp": "2025-12-26T04:40:06.179220+00:00", "meta": {"OBJECT_NAME": "COSMOS 2251 DEB", "OBJECT_ID": "1993-036SU", "EPOCH": "2025-12-25T10:34:49.236096", "MEAN_MOTION": 14.96279673, "ECCENTRICITY": 0.0023839, "INCLINATION": 74.0458, "RA_OF_ASC_NODE": 62.2341, "ARG_OF_PERICENTER": 74.2453, "MEAN_ANOMALY": 286.1359, "EPHEMERIS_TYPE": 0, "CLASSIFICATION_TYPE": "U", "NORAD_CAT_ID": 34451, "ELEMENT_SET_NO": 999, "REV_AT_EPOCH": 88825, "BSTAR": 0.002646, "MEAN_MOTION_DOT": 0.00030161, "MEAN_MOTION_DDOT": 0}, "tle": {"line1": "1 34451U 93036SU  25359.44084764  .00030161  00000+0  26460-2 0  9999", "line2": "2 34451  74.0458  62.2341 0023839  74.2453 286.1359 14.96279673888254"}}, "geometry": {"type": "Point", "coordinates": [179.42389629697016, 71.93478747614081]}}, {"type": "Feature", "properties": {"norad_id": 34452, "name": "COSMOS 2251 DEB", "group": "cosmos-2251-debris", "lat": -55.07564144897245, "lon": -0.8255072545281664, "alt_km": 493.036446133995, "timestamp": "2025-12-26T04:40:06.179230+00:00", "meta": {"OBJECT_NAME": "COSMOS 2251 DEB", "OBJECT_ID": "1993-036SV", "EPOCH": "2025-12-25T13:51:10.621728", "MEAN_MOTION": 15.12041887, "ECCENTRICITY": 0.0064075, "INCLINATION": 74.032, "RA_OF_ASC_NODE": 156.2423, "ARG_OF_PERICENTER": 229.6968, "MEAN_ANOMALY": 249.8186, "EPHEMERIS_TYPE": 0, "CLASSIFICATION_TYPE": "U", "NORAD_CAT_ID": 34452, "ELEMENT_SET_NO": 999, "REV_AT_EPOCH": 90856, "BSTAR": 0.0010223, "MEAN_MOTION_DOT": 0.00018478, "MEAN_MOTION_DDOT": 0}, "tle": {"line1": "1 34452U 93036SV  25359.57720627  .00018478  00000+0  10223-2 0  9996", "line2": "2 34452  74.0320 156.2423 0064075 229.6968 249.8186 15.12041887908566"}}, "geometry": {"type": "Point", "coordinates": [-0.8255072545281664, -55.07564144897245]}}, {"type": "Feature", "properties": {"norad_id": 34454, "name": "COSMOS 2251 DEB", "group": "cosmos-2251-debris", "lat": -21.068626834712077, "lon": -113.4621665700945, "alt_km": 744.0791330313587, "timestamp": "2025-12-26T04:40:06.179240+00:00", "meta": {"OBJECT_NAME": "COSMOS 2251 DEB", "OBJECT_ID": "1993-036SX", "EPOCH": "2025-12-24T19:23:44.422656", "MEAN_MOTION": 14.38826373, "ECCENTRICITY": 0.00359643, "INCLINATION": 74.0584, "RA_OF_ASC_NODE": 255.4119, "ARG_OF_PERICENTER": 315.5668, "MEAN_ANOMALY": 44.2602, "EPHEMERIS_TYPE": 0, "CLASSIFICATION_TYPE": "U", "NORAD_CAT_ID": 34454, "ELEMENT_SET_NO": 999, "REV_AT_EPOCH": 88241, "BSTAR": 0.00020848352, "MEAN_MOTION_DOT": 6.2e-06, "MEAN_MOTION_DDOT": 0}, "tle": {"line1": "1 34454U 93036SX  25358.80815304  .00000620  00000+0  20848-3 0  9995", "line2": "2 34454  74.0584 255.4119 0035964 315.5668  44.2602 14.38826373882414"}}, "geometry": {"type": "Point", "coordinates": [-113.4621665700945, -21.068626834712077]}}, {"type": "Feature", "properties": {"norad_id": 34459, "name": "COSMOS 2251 DEB", "group": "cosmos-2251-debris", "lat": -70.34945509402691, "lon": 177.7200421288509, "alt_km": 764.3372022642652, "timestamp": "2025-12-26T04:40:06.179251+00:00", "meta": {"OBJECT_NAME": "COSMOS 2251 DEB", "OBJECT_ID": "1993-036TC", "EPOCH": "2025-12-24T23:53:11.652000", "MEAN_MOTION": 14.00517441, "ECCENTRICITY": 0.01921323, "INCLINATION": 74.0779, "RA_OF_ASC_NODE": 232.8663, "ARG_OF_PERICENTER": 299.8727, "MEAN_ANOMALY": 58.3436, "EPHEMERIS_TYPE": 0, "CLASSIFICATION_TYPE": "U", "NORAD_CAT_ID": 34459, "ELEMENT_SET_NO": 999, "REV_AT_EPOCH": 85883, "BSTAR": 0.00035903451, "MEAN_MOTION_DOT": 6e-06, "MEAN_MOTION_DDOT": 0}, "tle": {"line1": "1 34459U 93036TC  25358.99527375  .00000600  00000+0  35903-3 0  9994", "line2": "2 34459  74.0779 232.8663 0192132 299.8727  58.3436 14.00517441858831"}}, "geometry": {"type": "Point", "coordinates": [177.7200421288509, -70.34945509402691]}}, {"type": "Feature", "properties": {"norad_id": 34464, "name": "COSMOS 2251 DEB", "group": "cosmos-2251-debris", "lat": 63.706371358370966, "lon": -165.8930334914678, "alt_km": 477.157404403124, "timestamp": "2025-12-26T04:40:06.179261+00:00", "meta": {"OBJECT_NAME": "COSMOS 2251 DEB", "OBJECT_ID": "1993-036TH", "EPOCH": "2025-12-25T14:02:57.918048", "MEAN_MOTION": 15.28880799, "ECCENTRICITY": 0.0013807, "INCLINATION": 73.9888, "RA_OF_ASC_NODE": 50.9383, "ARG_OF_PERICENTER": 233.2192, "MEAN_ANOMALY": 126.7744, "EPHEMERIS_TYPE": 0, "CLASSIFICATION_TYPE": "U", "NORAD_CAT_ID": 34464, "ELEMENT_SET_NO": 999, "REV_AT_EPOCH": 90036, "BSTAR": 0.0025579, "MEAN_MOTION_DOT": 0.00072662, "MEAN_MOTION_DDOT": 0}, "tle": {"line1": "1 34464U 93036TH  25359.58539257  .00072662  00000+0  25579-2 0  9992", "line2": "2 34464  73.9888  50.9383 0013807 233.2192 126.7744 15.28880799900361"}}, "geometry": {"type": "Point", "coordinates": [-165.8930334914678, 63.706371358370966]}}, {"type": "Feature", "properties": {"norad_id": 34468, "name": "COSMOS 2251 DEB", "group": "cosmos-2251-debris", "lat": 44.72229101430228, "lon": 108.49178648331718, "alt_km": 782.9398235905501, "timestamp": "2025-12-26T04:40:06.179271+00:00", "meta": {"OBJECT_NAME": "COSMOS 2251 DEB", "OBJECT_ID": "1993-036TM", "EPOCH": "2025-12-25T15:10:50.890080", "MEAN_MOTION": 14.47658877, "ECCENTRICITY": 0.0076244, "INCLINATION": 74.0132, "RA_OF_ASC_NODE": 93.0501, "ARG_OF_PERICENTER": 235.381, "MEAN_ANOMALY": 124.0144, "EPHEMERIS_TYPE": 0, "CLASSIFICATION_TYPE": "U", "NORAD_CAT_ID": 34468, "ELEMENT_SET_NO": 999, "REV_AT_EPOCH": 88648, "BSTAR": 0.00037337, "MEAN_MOTION_DOT": 1.398e-05, "MEAN_MOTION_DDOT": 0}, "tle": {"line1": "1 34468U 93036TM  25359.63253345  .00001398  00000+0  37337-3 0  9997", "line2": "2 34468  74.0132  93.0501 0076244 235.3810 124.0144 14.47658877886484"}}, "geometry": {"type": "Point", "coordinates": [108.49178648331718, 44.72229101430228]}}]}